{
  "type": "FeatureCollection",
  "features": [
    {
      "type": "Feature",
      "properties": {
        "norad_id": 66617,
        "name": "STARLINK-35940",
        "group": "last-30-days",
        "lat": 52.92700901905446,
        "lon": -129.74094513904097,
        "alt_km": 439.3832156584085,
        "timestamp": "2025-12-21T03:56:49.614521+00:00",
        "meta_object_name": "STARLINK-35940",
        "meta_object_id": "2025-271A",
        "meta_epoch": "2025-12-20T19:47:13.216992",
        "meta_mean_motion": 15.39629505,
        "meta_eccentricity": 9.65e-05,
        "meta_inclination": 53.16,
        "meta_ra_of_asc_node": 148.9882,
        "meta_arg_of_pericenter": 80.5261,
        "meta_mean_anomaly": 279.5852,
        "meta_ephemeris_type": 0,
        "meta_classification_type": "U",
        "meta_norad_cat_id": 66617,
        "meta_element_set_no": 999,
        "meta_rev_at_epoch": 545,
        "meta_bstar": 0.00064056,
        "meta_mean_motion_dot": 0.00025315,
        "meta_mean_motion_ddot": 0,
        "tle_line1": "1 66617U 25271A   25354.82445853  .00025315  00000+0  64056-3 0  9990",
        "tle_line2": "2 66617  53.1600 148.9882 0000965  80.5261 279.5852 15.39629505  5452"
      },
      "geometry": {
        "type": "Point",
        "coordinates": [
          -129.74094513904097,
          52.92700901905446
        ]
      }
    },
    {
      "type": "Feature",
      "properties": {
        "norad_id": 66618,
        "name": "STARLINK-35970",
        "group": "last-30-days",
        "lat": -16.766015673010504,
        "lon": 133.82134544802017,
        "alt_km": 432.25104721730713,
        "timestamp": "2025-12-21T03:56:49.614532+00:00",
        "meta_object_name": "STARLINK-35970",
        "meta_object_id": "2025-271B",
        "meta_epoch": "2025-12-19T22:33:37.423008",
        "meta_mean_motion": 15.46560751,
        "meta_eccentricity": 0.0001439,
        "meta_inclination": 53.1597,
        "meta_ra_of_asc_node": 152.703,
        "meta_arg_of_pericenter": 41.703,
        "meta_mean_anomaly": 318.4087,
        "meta_ephemeris_type": 0,
        "meta_classification_type": "U",
        "meta_norad_cat_id": 66618,
        "meta_element_set_no": 999,
        "meta_rev_at_epoch": 532,
        "meta_bstar": -0.0083391,
        "meta_mean_motion_dot": -0.0040083,
        "meta_mean_motion_ddot": 0,
        "tle_line1": "1 66618U 25271B   25353.94001647 -.00400830  00000+0 -83391-2 0  9995",
        "tle_line2": "2 66618  53.1597 152.7030 0001439  41.7030 318.4087 15.46560751  5320"
      },
      "geometry": {
        "type": "Point",
        "coordinates": [
          133.82134544802017,
          -16.766015673010504
        ]
      }
    },
    {
      "type": "Feature",
      "properties": {
        "norad_id": 66619,
        "name": "STARLINK-35951",
        "group": "last-30-days",
        "lat": -47.317827439742956,
        "lon": 92.59104274189866,
        "alt_km": 434.63094536776225,
        "timestamp": "2025-12-21T03:56:49.614542+00:00",
        "meta_object_name": "STARLINK-35951",
        "meta_object_id": "2025-271C",
        "meta_epoch": "2025-12-19T22:45:25.750080",
        "meta_mean_motion": 15.46545275,
        "meta_eccentricity": 0.0002872,
        "meta_inclination": 53.1623,
        "meta_ra_of_asc_node": 152.7597,
        "meta_arg_of_pericenter": 23.3692,
        "meta_mean_anomaly": 336.7446,
        "meta_ephemeris_type": 0,
        "meta_classification_type": "U",
        "meta_norad_cat_id": 66619,
        "meta_element_set_no": 999,
        "meta_rev_at_epoch": 532,
        "meta_bstar": -0.0081194,
        "meta_mean_motion_dot": -0.0039068,
        "meta_mean_motion_ddot": 0,
        "tle_line1": "1 66619U 25271C   25353.94821470 -.00390680  00000+0 -81194-2 0  9990",
        "tle_line2": "2 66619  53.1623 152.7597 0002872  23.3692 336.7446 15.46545275  5327"
      },
      "geometry": {
        "type": "Point",
        "coordinates": [
          92.59104274189866,
          -47.317827439742956
        ]
      }
    },
    {
      "type": "Feature",
      "properties": {
        "norad_id": 66620,
        "name": "STARLINK-35936",
        "group": "last-30-days",
        "lat": -52.47308933034882,
        "lon": 69.54795985258988,
        "alt_km": 439.2278749259276,
        "timestamp": "2025-12-21T03:56:49.614564+00:00",
        "meta_object_name": "STARLINK-35936",
        "meta_object_id": "2025-271D",
        "meta_epoch": "2025-12-19T22:47:58.481952",
        "meta_mean_motion": 15.45204148,
        "meta_eccentricity": 0.0001217,
        "meta_inclination": 53.1593,
        "meta_ra_of_asc_node": 152.7719,
        "meta_arg_of_pericenter": 60.4895,
        "meta_mean_anomaly": 299.6234,
        "meta_ephemeris_type": 0,
        "meta_classification_type": "U",
        "meta_norad_cat_id": 66620,
        "meta_element_set_no": 999,
        "meta_rev_at_epoch": 532,
        "meta_bstar": -0.0084825,
        "meta_mean_motion_dot": -0.00389636,
        "meta_mean_motion_ddot": 0,
        "tle_line1": "1 66620U 25271D   25353.94998243 -.00389636  00000+0 -84825-2 0  9998",
        "tle_line2": "2 66620  53.1593 152.7719 0001217  60.4895 299.6234 15.45204148  5322"
      },
      "geometry": {
        "type": "Point",
        "coordinates": [
          69.54795985258988,
          -52.47308933034882
        ]
      }
    },
    {
      "type": "Feature",
      "properties": {
        "norad_id": 66621,
        "name": "STARLINK-35847",
        "group": "last-30-days",
        "lat": -12.651186215472025,
        "lon": 137.17550779848386,
        "alt_km": 430.96041345732647,
        "timestamp": "2025-12-21T03:56:49.614574+00:00",
        "meta_object_name": "STARLINK-35847",
        "meta_object_id": "2025-271E",
        "meta_epoch": "2025-12-19T22:32:40.837056",
        "meta_mean_motion": 15.4673989,
        "meta_eccentricity": 5.74e-05,
        "meta_inclination": 53.1594,
        "meta_ra_of_asc_node": 152.6978,
        "meta_arg_of_pericenter": 182.8412,
        "meta_mean_anomaly": 177.2593,
        "meta_ephemeris_type": 0,
        "meta_classification_type": "U",
        "meta_norad_cat_id": 66621,
        "meta_element_set_no": 999,
        "meta_rev_at_epoch": 532,
        "meta_bstar": -0.0053109,
        "meta_mean_motion_dot": -0.00261578,
        "meta_mean_motion_ddot": 0,
        "tle_line1": "1 66621U 25271E   25353.93936154 -.00261578  00000+0 -53109-2 0  9996",
        "tle_line2": "2 66621  53.1594 152.6978 0000574 182.8412 177.2593 15.46739890  5326"
      },
      "geometry": {
        "type": "Point",
        "coordinates": [
          137.17550779848386,
          -12.651186215472025
        ]
      }
    },
    {
      "type": "Feature",
      "properties": {
        "norad_id": 66622,
        "name": "STARLINK-35950",
        "group": "last-30-days",
        "lat": -7.122247690483756,
        "lon": -27.44300136106823,
        "alt_km": 449.30882049774846,
        "timestamp": "2025-12-21T03:56:49.614583+00:00",
        "meta_object_name": "STARLINK-35950",
        "meta_object_id": "2025-271F",
        "meta_epoch": "2025-12-20T20:00:01.999008",
        "meta_mean_motion": 15.39595705,
        "meta_eccentricity": 0.0001287,
        "meta_inclination": 53.1596,
        "meta_ra_of_asc_node": 148.7423,
        "meta_arg_of_pericenter": 76.0071,
        "meta_mean_anomaly": 76.5637,
        "meta_ephemeris_type": 0,
        "meta_classification_type": "U",
        "meta_norad_cat_id": 66622,
        "meta_element_set_no": 999,
        "meta_rev_at_epoch": 554,
        "meta_bstar": 0.0013274,
        "meta_mean_motion_dot": 0.00053022,
        "meta_mean_motion_ddot": 0,
        "tle_line1": "1 66622U 25271F   25354.83335647  .00053022  00000+0  13274-2 0  9997",
        "tle_line2": "2 66622  53.1596 148.7423 0001287  76.0071  76.5637 15.39595705  5548"
      },
      "geometry": {
        "type": "Point",
        "coordinates": [
          -27.44300136106823,
          -7.122247690483756
        ]
      }
    },
    {
      "type": "Feature",
      "properties": {
        "norad_id": 66623,
        "name": "STARLINK-35920",
        "group": "last-30-days",
        "lat": 32.76849729912791,
        "lon": -61.572174868896354,
        "alt_km": 442.3055525249265,
        "timestamp": "2025-12-21T03:56:49.614592+00:00",
        "meta_object_name": "STARLINK-35920",
        "meta_object_id": "2025-271G",
        "meta_epoch": "2025-12-20T18:00:21.356352",
        "meta_mean_motion": 15.39640235,
        "meta_eccentricity": 0.0003524,
        "meta_inclination": 53.1606,
        "meta_ra_of_asc_node": 149.2333,
        "meta_arg_of_pericenter": 63.4222,
        "meta_mean_anomaly": 296.7144,
        "meta_ephemeris_type": 0,
        "meta_classification_type": "U",
        "meta_norad_cat_id": 66623,
        "meta_element_set_no": 999,
        "meta_rev_at_epoch": 544,
        "meta_bstar": 0.00064132,
        "meta_mean_motion_dot": 0.00025358,
        "meta_mean_motion_ddot": 0,
        "tle_line1": "1 66623U 25271G   25354.75024718  .00025358  00000+0  64132-3 0  9994",
        "tle_line2": "2 66623  53.1606 149.2333 0003524  63.4222 296.7144 15.39640235  5448"
      },
      "geometry": {
        "type": "Point",
        "coordinates": [
          -61.572174868896354,
          32.76849729912791
        ]
      }
    }
  ]
}